ERS-1                   
1 21574U 91050A   26090.52367454  .00000423  00000+0  14963-3 0  9991
2 21574  98.7862 109.3059 0032798 136.1672 224.2126 14.39466220818871
ARIANE 40 R/B           
1 21610U 91050F   26090.59202967  .00000404  00000+0  13349-3 0  9992
2 21610  98.1966 142.0017 0003390  31.0772 329.0618 14.42909782822154
INTERCOSMOS 25          
1 21819U 91086A   26090.53243383  .00002265  00000+0  43790-3 0  9993
2 21819  82.6004 296.8025 1486442  69.8713 305.5780 12.12074891499339
SL-8 R/B                
1 21876U 92008B   26090.91020604  .00000014  00000+0 -13957-5 0  9997
2 21876  82.9237 251.2442 0035887  73.4244  35.7534 13.75969676712479
SL-8 R/B                
1 21938U 92020B   26090.90024066  .00000047  00000+0  32781-4 0  9995
2 21938  82.9298 137.2701 0027876 233.9069 298.8896 13.75550615704184
USA 81                  
1 21949U 92023A   26090.52421846  .00000232  00000+0  78475-4 0  9991
2 21949  85.0044 118.8399 0001663  68.4743 291.6627 14.32375169 97915
COSMOS 2219             
1 22219U 92076A   26090.87422073 -.00000208  00000+0 -84317-4 0  9998
2 22219  71.0614 331.6968 0017783 173.9854 186.1485 14.14089795721513
SL-16 R/B               
1 22220U 92076B   26090.88656775 -.00000192  00000+0 -71729-4 0  9994
2 22220  70.9991 141.6198 0010791  55.0893 116.7550 14.16863269724973
COSMOS 2221             
1 22236U 92080A   26090.84013440  .00002775  00000+0  24279-3 0  9992
2 22236  82.5006 257.8562 0015623 116.2103 244.0727 14.96296818784104
SL-16 R/B               
1 22285U 92093B   26090.57654503  .00000094  00000+0  72736-4 0  9995
2 22285  71.0227 318.3221 0006568 272.6425  87.3946 14.15455764716253
COSMOS 2228             
1 22286U 92094A   26090.84167479  .00003445  00000+0  29405-3 0  9995
2 22286  82.5193 216.1007 0017069 224.0472 135.9391 14.97309733779371
SL-16 R/B               
1 22566U 93016B   26090.47780651  .00000159  00000+0  10625-3 0  9996
2 22566  71.0075 169.4232 0012350 286.0384  73.9378 14.15306149705252
